STARLINK-2022           
1 47643U 21012Z   24130.44481312  .00002268  00000+0  17105-3 0  9991
2 47643  53.0521 175.9731 0001266  79.4613 280.6518 15.06411269179394
